IRIDIUM 119             
1 42959U 17061E   25056.53794769  .00000047  00000+0  96757-5 0  9991
2 42959  86.3961 224.3808 0002344  95.0801 265.0663 14.34217944386494
IRIDIUM 107             
1 42960U 17061F   25055.92905863 -.00000067  00000+0 -31040-4 0  9991
2 42960  86.3964 224.6540 0002444  89.0859 271.0617 14.34217071386411
IRIDIUM 132             
1 42961U 17061G   25055.93539889  .00000009  00000+0 -38892-5 0  9992
2 42961  86.3962 224.6340 0002139  89.2216 270.9224 14.34217274386415
IRIDIUM 136             
1 42962U 17061H   25055.89734905  .00000309  00000+0  10331-3 0  9992
2 42962  86.3962 224.6542 0002508  93.7051 266.4432 14.34217190386426
IRIDIUM 139             
1 42963U 17061J   25055.90368852 -.00000006  00000+0 -91943-5 0  9995
2 42963  86.3966 224.7061 0002269  88.1183 272.0273 14.34217648386431
IRIDIUM 125             
1 42964U 17061K   25056.44915221  .00000020  00000+0  51354-7 0  9992
2 42964  86.3965 224.5301 0002646  99.8642 260.2852 14.34217761386522
IRIDIUM 135             
1 43070U 17083A   25056.00466195  .00000973  00000+0  34025-3 0  9997
2 43070  86.4041 161.4820 0001928  97.7800 262.3615 14.34216618375750
IRIDIUM 138             
1 43071U 17083B   25055.75096122  .00000249  00000+0  81796-4 0  9992
2 43071  86.4028 161.2736 0002448 111.8827 248.2629 14.34216311375708
